name,type,address,latitude,longitude,phone,yakap_accredited,services,operating_hours,barangay,photos,specialized_services,is_24_7,capacity,live_metrics,busy_patterns, signals
"Bicol Medical Center","Hospital (Level III)","J. Miranda Avenue, Concepcion Pequeña, Naga City, Camarines Sur, 4400","13.62398°N","123.19889°E","INFORMATION:  (054) 472-6125 to 31;HEMS: 0927-357-9967","true","Cardiovascular Surgery;Cardiac Intensive Care Unit;Cardiac Catheterization;Non-Invasive Tests;Cardiac Rehabilitation Unit;Narrowband UVB Phototherapy;Vision Screening;Eye Trauma Screening;Cataract Screening;Glaucoma;Minor Lid Removal;Lid Laceration Repair;Pterygium Excision;Incision and Curettage;Cataract Surgery;Corneal Perforating Injury Repair;Enucleation and Evisceration;Lay Fora on Healthy Ageing;Out-Patient Geriatric Consultation;Neonatal Center;Newborn Hearing Screening (Otoacoustic Emission);Auditory Brainstem Response (ABR);Auditory Steady State Response (ASSR);Pure Tone Audiometry;Speech Test;Tympanometry;Medical Consultation;Physical Therapy;Occupational Therapy;Poison Control Center;Drug Testing Laboratory;Radiation Oncology;Medical Social Service;Pharmacy;Kidney Transplant;Hemodialysis;Peritoneal Dialysis;End-Stage Renal Disease;Pain Clinic;Ambulatory Surgery;None Operating Room Anesthesia;Elective and Emergency Surgery;Dental Services;Family and Community Medicine;Internal Medicine;Obstetrics;Gynecology;Orthopedics;Otorhinolaryngology-HNS;Pediatrics;Psychiatry;General Surgery;Clinical Pharmacy Services;Pathology;Laboratory Servicess;Blood Bank;Transfusion Services;Radiology;Nursing Services","Mon-Sun: 24 Hours","Barangay Concepcion Pequeña","https://gnctenrbzfhrdkfmcxfd.supabase.co/storage/v1/object/sign/HEALTH%20FACILITIES/BICOL%20MEDICAL%20CENTER.png?token=eyJraWQiOiJzdG9yYWdlLXVybC1zaWduaW5nLWtleV8xYTNhMGVmMC0xMWJmLTQ5YzYtYTVmNy1mZDY5NTFhZDA2NjAiLCJhbGciOiJIUzI1NiJ9.eyJ1cmwiOiJIRUFMVEggRkFDSUxJVElFUy9CSUNPTCBNRURJQ0FMIENFTlRFUi5wbmciLCJpYXQiOjE3Njk2MTY1MzksImV4cCI6MTgwMTE1MjUzOX0.XGItWyHqURDK3ozVtzjHSjKueHEj4eX5kWyjvkxmB2w","Cardiology;Dermatology;Eye Care;Geriatric;Neonatal;Newborn Hearing Screening Reference;Physical and Rehabilitation Medicine;Poison Control;Drug Testing Laboratory;Oncology;Renal Care;Transplantation","true","1000",,,
"Naga City General Hospital","Hospital (Level I)"," Leon SA Aureus St., Balatas, Naga City, Camarines Sur, 44000","13.6218°N","123.1948°E","Email: ncgh@naga.gov.ph","true","Medical Records Services; Orthopedics; Tracheostomy;Foreign Body Removal;NGT Insertion;Catheter;Minor Wounds Dressing;Nebulization;Radiology;UTZ Procedures;2D Echo Procedures;X-Ray Procedures;Clinical Laboratory;Blood Chemistry;Hematology;Immunology;Serology;Clinical Microscopy;Bacteriology;Drug Test;Blood Station;General Medical Consultation;Treatment of Minor Medical Cases and Emergencies;Medical Examinations;Neonata Services;Pharmacy;General Surgery;Maternity Services","Mon-Sun: 24 Hours","Barangay Balatas","https://gnctenrbzfhrdkfmcxfd.supabase.co/storage/v1/object/sign/HEALTH%20FACILITIES/NAGA%20CITY%20GENERAL%20HOSPITAL.webp?token=eyJraWQiOiJzdG9yYWdlLXVybC1zaWduaW5nLWtleV8xYTNhMGVmMC0xMWJmLTQ5YzYtYTVmNy1mZDY5NTFhZDA2NjAiLCJhbGciOiJIUzI1NiJ9.eyJ1cmwiOiJIRUFMVEggRkFDSUxJVElFUy9OQUdBIENJVFkgR0VORVJBTCBIT1NQSVRBTC53ZWJwIiwiaWF0IjoxNzY5NjE2NTk4LCJleHAiOjE4MDExNTI1OTh9.L3kNag-AwtjJxQSeWwky0WBIbnNHNWZiSBeq_ZXQx8E","Animal Bite Treatment; Neonatal Services; Newborn Hearing Screening;Radiology","true","95",,,
"Abella Barangay Health Station","Health Center","Zone 4 Urban, Abella, Naga City","13.6234°N","123.1856°E","BHS MW Stephanie Mae C. Magistrado: 09619950058;BNS Raquel O. Benosa: 09982793261;BSPO Amelia Reyes: 09811897164;BSPO Mary Anne D. Navarro: 09126091244","true","Daily Consultation; Family Planning; Center-Based Feeding; NTP; Immunization; Prenatal; Counseling; Post-Partum; Home Visitation","Mon-Fri: 8:00 AM - 5:00 PM","Barangay Abella","https://gnctenrbzfhrdkfmcxfd.supabase.co/storage/v1/object/sign/HEALTH%20FACILITIES/ABELLA.png?token=eyJraWQiOiJzdG9yYWdlLXVybC1zaWduaW5nLWtleV8xYTNhMGVmMC0xMWJmLTQ5YzYtYTVmNy1mZDY5NTFhZDA2NjAiLCJhbGciOiJIUzI1NiJ9.eyJ1cmwiOiJIRUFMVEggRkFDSUxJVElFUy9BQkVMTEEucG5nIiwiaWF0IjoxNzcwMDI4NTQzLCJleHAiOjE4MDE1NjQ1NDN9.zh29l5yLQsMVliVjH70MmS3HOr8MoP4iYJ7OSHqrPYQ","Adolescent Health Services;Mental Health Consultation;Women's Health Services;VIA;Breast Cancer Screening;Medical Check Up;Dental Check Up","false","20",,,
"Bagumbayan Norte Barangay Health Station","Health Center","Zone 5 Bagumbayan Norte, Naga City","to be filled","to be filled","BHS MW Sarah Kay S. Cano: 09637589088;BHW Pres. Teresa R. Bachiller: 09306742637;BNS Merlinda D. Camba: 09936510036;BSPO Gina F. Avellano: 09517468427;K/H Mary Mae A. Calalo: 09619722373","true","Family Planning;Daily Consultation;Non Communicable Disease Risk Assessment;NTP Dispensing of Medicine;Immunization;Prenatal","Mon-Fri: 8:00 AM - 5:00 PM","Barangay Bagumbayan Norte","https://gnctenrbzfhrdkfmcxfd.supabase.co/storage/v1/object/sign/HEALTH%20FACILITIES/BAGUMBAYANNORTE.png?token=eyJraWQiOiJzdG9yYWdlLXVybC1zaWduaW5nLWtleV8xYTNhMGVmMC0xMWJmLTQ5YzYtYTVmNy1mZDY5NTFhZDA2NjAiLCJhbGciOiJIUzI1NiJ9.eyJ1cmwiOiJIRUFMVEggRkFDSUxJVElFUy9CQUdVTUJBWUFOTk9SVEUucG5nIiwiaWF0IjoxNzcwMDI4NjUzLCJleHAiOjE4MDE1NjQ2NTN9.T62x14YXEO3iCwFUejh_hpQzIYPAdjwXE606kkg9Fxc","PSI Insertion and Removal;Dental Check Up","false","20",,,
"Bagumbayan Sur Barangay Health Station","Health Center","Zone 1 P. Santos St., Bagumbayan Sur, Naga City","13.6210°N","123.1856°E","BHS MW Gemma R. Paglinawan: 09168239471;BHW Pres Eden P. Adupe: 09207352604;BNS Gemma L. Adupe: 09073626175;BSPO Rosemarie P. Viñas: 09510167317","true","Daily Consultation;Family Planning;NTP;YAKAP Profiling;Risk Assessment of Non Communicable Diseases;4P's Beneficiary Weight Monitoring;Adolescent Counseling;Progestin Sub-Dermal Implant Insertion;Micronutrient Supplementation;NTP Dispensing of Medicines;BP and Weight Monitoring;Prenatal;Immunization","Mon-Fri: 8:00 AM - 5:00 PM","Barangay Bagumbayan Sur","https://gnctenrbzfhrdkfmcxfd.supabase.co/storage/v1/object/sign/HEALTH%20FACILITIES/BAGUMBAYANSUR.png?token=eyJraWQiOiJzdG9yYWdlLXVybC1zaWduaW5nLWtleV8xYTNhMGVmMC0xMWJmLTQ5YzYtYTVmNy1mZDY5NTFhZDA2NjAiLCJhbGciOiJIUzI1NiJ9.eyJ1cmwiOiJIRUFMVEggRkFDSUxJVElFUy9CQUdVTUJBWUFOU1VSLnBuZyIsImlhdCI6MTc3MDAyODY4OSwiZXhwIjoxODAxNTY0Njg5fQ.ke-bAAQ7lchrnvpmpIghcvYeM-inc0DxH3JwJdMuXLQ","Progestin Sub-Dermal Insertion and Removal;Mobile Blood Donation;Operation Tuli;Basic Oral Health Care;School Based Immunization;School Based Deworming;Community Based Deworming;Human Papilloma Virus Immunization","false","20",,,
"Balatas Barangay Health Station","Health Center","Zone 3 Kayanga Street, Balatas, Naga City","to be filled","to be filled","BHS MW Mariel San Agustin: 09508682736; DOH-HRH Luis Anthony Contreras RN: 09173148740;BNS Melba Tena: 09381865252;BSPO Nova A. Atos: 09505783938","true","Daily Consultation;Family Planning;NTP;Prenatal;Counseling;Immunization;Post Partum and Home Visitation;Non-Communicable Disease Health Services and Risk Assessment","Mon-Fri: 8:00 AM - 5:00 PM","Barangay Balatas","https://gnctenrbzfhrdkfmcxfd.supabase.co/storage/v1/object/sign/HEALTH%20FACILITIES/BALATAS.png?token=eyJraWQiOiJzdG9yYWdlLXVybC1zaWduaW5nLWtleV8xYTNhMGVmMC0xMWJmLTQ5YzYtYTVmNy1mZDY5NTFhZDA2NjAiLCJhbGciOiJIUzI1NiJ9.eyJ1cmwiOiJIRUFMVEggRkFDSUxJVElFUy9CQUxBVEFTLnBuZyIsImlhdCI6MTc3MDAyODcxNywiZXhwIjoxODAxNTY0NzE3fQ.06-is2S258qcQ5EHwdbXmJVUKqjtSUz6wlQHQO2VTZ4","Adolescent Health Services;Dental Check Up","false","20",,,
"Calauag Barangay Health Station","Health Center","Zone 6 Calauag, Naga City","to be filled","to be filled","BHS MW Rowena F. Reondanga: 09101537273;DOH-HRH Zarina V. Ardeza: 09165522912;BHW Pres Zabeth Sto. Domingo: 09123321668;BSPO Alma Plandes: 09121485435;BSPO Joana Carmela Clemente: 09932297680;BSPO Elizabeth Peñaflor: 09704923449","true","Adolescent Health Program Services;Prenatal Services;Immunization;NTP","Mon-Fri: 8:00 AM - 5:00 PM","Barangay Calauag","https://gnctenrbzfhrdkfmcxfd.supabase.co/storage/v1/object/sign/HEALTH%20FACILITIES/CALAUAG.png?token=eyJraWQiOiJzdG9yYWdlLXVybC1zaWduaW5nLWtleV8xYTNhMGVmMC0xMWJmLTQ5YzYtYTVmNy1mZDY5NTFhZDA2NjAiLCJhbGciOiJIUzI1NiJ9.eyJ1cmwiOiJIRUFMVEggRkFDSUxJVElFUy9DQUxBVUFHLnBuZyIsImlhdCI6MTc3MDAyODc0MCwiZXhwIjoxODAxNTY0NzQwfQ.AkzdPPlKq_y-TAFObZgPaRzeQvxlQdAbanqngOEcxo4","VIA Screening;Oral Health and Dengue Program;SBD;Blood Donation;SIA;SBI;Operation Tuli;Dog Vaccination;Flu Faccination","false","20",,,
"Cararayan Barangay Health Station","Health Center","Zone 1A Cararayan, Naga City;Zone 6 San Rafael, Cararayan, Naga City (Annex BHS)","to be filled","to be filled","Hon. Rodrigo Agravante Jr.: 09071294068;BHS MW Janet Roslene Beloro: 09616073195","true","Family Planning Services;Prenatal;Immunization;NTP;TB PT","Mon-Fri: 8:00 AM - 5:00 PM","Barangay Cararayan","https://gnctenrbzfhrdkfmcxfd.supabase.co/storage/v1/object/sign/HEALTH%20FACILITIES/CARARAYAN.png?token=eyJraWQiOiJzdG9yYWdlLXVybC1zaWduaW5nLWtleV8xYTNhMGVmMC0xMWJmLTQ5YzYtYTVmNy1mZDY5NTFhZDA2NjAiLCJhbGciOiJIUzI1NiJ9.eyJ1cmwiOiJIRUFMVEggRkFDSUxJVElFUy9DQVJBUkFZQU4ucG5nIiwiaWF0IjoxNzcwMDI4NzU3LCJleHAiOjE4MDE1NjQ3NTd9.JjZ8umaZXcFM_u5LMVnUaKm37hJZDBQ48J1rJY1oh_g","Adolescent Counseling;PSI Insertion;4P's Nutritional Monitoring","false","20",,,
"Carolina Barangay Health Station","Health Center","Zone 3 Carolina, Naga City","to be filled","to be filled","09463604591;09489021470","true","Daily Consultation;Family Planning;Non-Communicable Disease Health Services;HIV Screening and Counseling;Immunization;NTP;Post-Partum;Home Visitation","Mon-Fri: 8:00 AM - 5:00 PM","Barangay Carolina","https://gnctenrbzfhrdkfmcxfd.supabase.co/storage/v1/object/sign/HEALTH%20FACILITIES/CAROLINA.png?token=eyJraWQiOiJzdG9yYWdlLXVybC1zaWduaW5nLWtleV8xYTNhMGVmMC0xMWJmLTQ5YzYtYTVmNy1mZDY5NTFhZDA2NjAiLCJhbGciOiJIUzI1NiJ9.eyJ1cmwiOiJIRUFMVEggRkFDSUxJVElFUy9DQVJPTElOQS5wbmciLCJpYXQiOjE3NzAwMjg3NzksImV4cCI6MTgwMTU2NDc3OX0.lh27CD4JzB0FO8jZrcaNKLJteeQInH3cXp7QaflDd4A","Teenage Pregnancy and Adolescent Counseling;Women's Day VIA and Breast Exam;Mental Health Counseling","false","20",,,
"Concepcion Grande Barangay Health Station","Health Center","Zone 4 Barangay Hall,Concepcion Grande, Naga City","to be filled","to be filled","BHS MW Rosa M. Paa: 09926460324;DOH-HRH Angelica Relos: 09810100550;BNS Cecilia O. San Pascual: 09602253086;BSPO Isabel B. Baldemoro: 09505783938","true","Daily Consultation;Family Planning;Center-based Feeding;NTP;Immunization;Prenatal;Post-Partum;Home Visitation;Counseling","Mon-Fri: 8:00 AM - 5:00 PM","Barangay Concepcion Grande","https://gnctenrbzfhrdkfmcxfd.supabase.co/storage/v1/object/sign/HEALTH%20FACILITIES/CONCEPCIONGRANDE.png?token=eyJraWQiOiJzdG9yYWdlLXVybC1zaWduaW5nLWtleV8xYTNhMGVmMC0xMWJmLTQ5YzYtYTVmNy1mZDY5NTFhZDA2NjAiLCJhbGciOiJIUzI1NiJ9.eyJ1cmwiOiJIRUFMVEggRkFDSUxJVElFUy9DT05DRVBDSU9OR1JBTkRFLnBuZyIsImlhdCI6MTc3MDAyODc5NiwiZXhwIjoxODAxNTY0Nzk2fQ.R9agBMTX8xJSy3i9cDonF-Te73Scl3Ps9PkabyJyHXo","Adolescent Health Services;Mental Health Consultation;VIA;Breast Cancer Screening;Medical Check Up;Dental Check Up","false","20",,,
"Concepcion Pequeña Barangay Health Station","Health Center","Zone 3 Greenland, Concepcion Pequeña, Naga City","to be filled","to be filled","DOH-HRH Neliza G. Diaz, RN: 09451628425;DOH-HRH Armida B. Sayson, RN: 09274100433;DOH-HRH Prince Mark S. Apongol, RN: 09198260699;DOH-HRH Lalaine C. Brito, RN: 09297861371;DOH-HRH Eva C. Albao, RM: 09286912543;BSPO Nenita B. Omisal: 09167374870;BSPO Morie Buitzon: 09709806594;BSPO Julianne T. Rivera: 09703159524","true","Family Planning;DMPA Injection;Pills/Condom;Progestin Subdermal Implant Insertion and Removal;IUD/Tubal Ligation;Non-Communicable Disease Program Health Services;Adolescent Health;NTP;Immunization;Maternal Health Care Services","Mon-Fri: 8:00 AM - 5:00 PM","Barangay Concepcion Pequeña","https://gnctenrbzfhrdkfmcxfd.supabase.co/storage/v1/object/sign/HEALTH%20FACILITIES/CONCEPCIONPEQUENA.png?token=eyJraWQiOiJzdG9yYWdlLXVybC1zaWduaW5nLWtleV8xYTNhMGVmMC0xMWJmLTQ5YzYtYTVmNy1mZDY5NTFhZDA2NjAiLCJhbGciOiJIUzI1NiJ9.eyJ1cmwiOiJIRUFMVEggRkFDSUxJVElFUy9DT05DRVBDSU9OUEVRVUVOQS5wbmciLCJpYXQiOjE3NzAwMjg4MTYsImV4cCI6MTgwMTU2NDgxNn0.jtPyURr4giPQychdYgEtwqkCumYD3gld5m0gV3K4Uhk","Dental Tooth Extraction;Search and Destroy Activities;Dog and Cat Vaccination;Pneumonia and Flu Vaccination;Garantisadong Pambata;Deworming Services;Nutrition Services;Environmental Health;Leprosy Prevention and Control","false","20",,,
"Dayangdang Barangay Health Station","Health Center","Zone 5 Main Road, Dayangdang, Naga City","to be filled","to be filled","BHS MW France Dorie B. Valencia: 09260282335;KGD. ON HEALTH Raymond P. Medina: 09925480920","true","Daily Consultation;Non-Communicable Disease Program Health Services;Family Planning;NTP;Prenatal;Immunization","Mon-Fri: 8:00 AM - 5:00 PM","Barangay Dayangdang","https://gnctenrbzfhrdkfmcxfd.supabase.co/storage/v1/object/sign/HEALTH%20FACILITIES/DAYANGDANG.png?token=eyJraWQiOiJzdG9yYWdlLXVybC1zaWduaW5nLWtleV8xYTNhMGVmMC0xMWJmLTQ5YzYtYTVmNy1mZDY5NTFhZDA2NjAiLCJhbGciOiJIUzI1NiJ9.eyJ1cmwiOiJIRUFMVEggRkFDSUxJVElFUy9EQVlBTkdEQU5HLnBuZyIsImlhdCI6MTc3MDAyODg0MSwiZXhwIjoxODAxNTY0ODQxfQ.ZQZfOl3QNxK-2W3fctXKMHNkZ-VTTCb2YfTSEKxS5dY","PSI Insertion and Removal;4P's Monitoring","false","20",,,
"Del Rosario Barangay Health Station","Health Center","Zone 3 Maharlika Highway, Del Rosario, Naga City","to be filled","to be filled","Capt. Jose Peña III: 09171838392;881-86-43","true","Daily Consultation;NTP Enrollment;YAKAP Profiling;PF Counseling;Philpen Risk Assessment;HPN/DM Dispensing of Medicine;Prenatal Check Up;Immunization;Dispensing of Medicine;Weighing;Family Planning","Mon-Fri: 8:00 AM - 5:00 PM","Barangay Del Rosario","https://gnctenrbzfhrdkfmcxfd.supabase.co/storage/v1/object/sign/HEALTH%20FACILITIES/DEL%20ROSARIO.png?token=eyJraWQiOiJzdG9yYWdlLXVybC1zaWduaW5nLWtleV8xYTNhMGVmMC0xMWJmLTQ5YzYtYTVmNy1mZDY5NTFhZDA2NjAiLCJhbGciOiJIUzI1NiJ9.eyJ1cmwiOiJIRUFMVEggRkFDSUxJVElFUy9ERUwgUk9TQVJJTy5wbmciLCJpYXQiOjE3NzAwMjg4NTMsImV4cCI6MTgwMTU2NDg1M30.896sUBweSHfHp9W2BZTT87W0UYhkL6xFKGi7fmRik2k","Adolescent Counseling;Dental Extraction;Growth Monitoring and Weighing of Children;Home Visits","false","20",,,
"Dinaga Barangay Health Station","Health Center","Zone 4 Brgy. Hall, Dinaga, Naga City","to be filled","to be filled","BHS MW Nora P. Dizon: 09516098464;BNS Melanie Alarcon: 09071223362;BSPO Eden Nazaria: 09914571861","true","Daily Consultation;Dispensing of Medicine;Prenatal;Immunization;Prenatal Check Up;Post-partum;House-to-House Deworming;House-to-House Visits for Case Findings;NTP","Mon-Fri: 8:00 AM - 5:00 PM","Barangay Dinaga","https://gnctenrbzfhrdkfmcxfd.supabase.co/storage/v1/object/sign/HEALTH%20FACILITIES/DINAGA.png?token=eyJraWQiOiJzdG9yYWdlLXVybC1zaWduaW5nLWtleV8xYTNhMGVmMC0xMWJmLTQ5YzYtYTVmNy1mZDY5NTFhZDA2NjAiLCJhbGciOiJIUzI1NiJ9.eyJ1cmwiOiJIRUFMVEggRkFDSUxJVElFUy9ESU5BR0EucG5nIiwiaWF0IjoxNzcwMDI4ODcxLCJleHAiOjE4MDE1NjQ4NzF9.Vb3Tq_rugdFztHK9UspnyZZ-RpRMF0kw06b6Fd6k90U","Dental Check Up;Blood Donation","false","20",,,
"Igualdad Barangay Health Station","Health Center","Zone 4 Igualdad, Naga City","to be filled","to be filled","BHS MW Marilyn Nasayao: 09108379979","true","Daily Consultation;Dispensing of NTP Medicine;Prenatal;Immunization;Post-Partum Visit;Family Planning","Mon-Fri: 8:00 AM - 5:00 PM","Barangay Igualdad","https://gnctenrbzfhrdkfmcxfd.supabase.co/storage/v1/object/sign/HEALTH%20FACILITIES/UNKOWN%20LOC.jpg?token=eyJraWQiOiJzdG9yYWdlLXVybC1zaWduaW5nLWtleV8xYTNhMGVmMC0xMWJmLTQ5YzYtYTVmNy1mZDY5NTFhZDA2NjAiLCJhbGciOiJIUzI1NiJ9.eyJ1cmwiOiJIRUFMVEggRkFDSUxJVElFUy9VTktPV04gTE9DLmpwZyIsImlhdCI6MTc3MDAyODg4NywiZXhwIjoxODAxNTY0ODg3fQ.W9d3y0S760Xe9mNHqC-A5OfM-PUe12A2qQdZ-JxgVbA","Dental Check Up;Mobile Blood Donation;Operation Tuli","false","20",,,
"Lerma Barangay Health Station","Health Center","Zone 5, Lerma, Naga City","to be filled","to be filled","BHS MW Nora P. Dizaon: 09516098464;BHW Pres Raquel Roque: 09922815369;BNS Jeena C. Gonzaga: 09106341803;BSPO Imelda M. Dawang: 09481016674","true","Daily Consultation;NTP;Immunization;Prenatal;VIA Screening;Dispensing of Medicine","Mon-Fri: 8:00 AM - 5:00 PM","Barangay Lerma","https://gnctenrbzfhrdkfmcxfd.supabase.co/storage/v1/object/sign/HEALTH%20FACILITIES/LERMA.png?token=eyJraWQiOiJzdG9yYWdlLXVybC1zaWduaW5nLWtleV8xYTNhMGVmMC0xMWJmLTQ5YzYtYTVmNy1mZDY5NTFhZDA2NjAiLCJhbGciOiJIUzI1NiJ9.eyJ1cmwiOiJIRUFMVEggRkFDSUxJVElFUy9MRVJNQS5wbmciLCJpYXQiOjE3NzAwMjg5MDYsImV4cCI6MTgwMTU2NDkwNn0.BV288qXOcTO1Hv9cb4nO3AnStjZSVIIrXRe8ZTkmTwk","Dental Check Up;Blood Donation","false","20",,,
"Liboton Barangay Health Station","Health Center","Liboton Barangay Hall, Villafrancia Subdivision, Naga City","to be filled","to be filled","BHS MW Karen B. Pamor: 09661794096; BHW(Z-1): Rosario A. Rodriguez: 09511840918;BHW(Z-2) Magnolia Lourdes P. Recto: 09110221169;BHW(Z-3) Madonna A. France: 09081847751;BHW(Z-4) Geraldine F. Villegas: 09301962275","true","Regular Consulation;BP Monitoring;Risk Assessment;Prenatal;Immunization;NTP","Mon-Fri: 8:00 AM - 5:00 PM","Barangay Liboton","https://gnctenrbzfhrdkfmcxfd.supabase.co/storage/v1/object/sign/HEALTH%20FACILITIES/LIBOTON.png?token=eyJraWQiOiJzdG9yYWdlLXVybC1zaWduaW5nLWtleV8xYTNhMGVmMC0xMWJmLTQ5YzYtYTVmNy1mZDY5NTFhZDA2NjAiLCJhbGciOiJIUzI1NiJ9.eyJ1cmwiOiJIRUFMVEggRkFDSUxJVElFUy9MSUJPVE9OLnBuZyIsImlhdCI6MTc3MDAyODkyMywiZXhwIjoxODAxNTY0OTIzfQ.BwPQnfI0_3a3RYDFKVqez2S4y98rFFtuRZhpNrnUhPg","Adolescent Health Services;Women's Day;Medical Check Up;Dental Check Up;Operation Tuli","false","20",,,
"Mabolo Barangay Health Station","Health Center","Zone 3 Pagdaicon, Mabolo,Naga City","to be filled","to be filled","BHS MW Eva F. Alcozar, RM: 09286006000;BHW Pres Criselda S. Monte: 09982170887;BNS Donabel Rodriguez: 09071950032;BSPO Gracel C. Diaz: 09509800841","true","Daily Consultation;Family Planning;NTP;YAKAP Profiling;Risk Asessment of Non Communicable Diseases;Adolescent Consultation;Immunization;Prenatal;4P's Consultation;VIA","Mon-Fri: 8:00 AM - 5:00 PM","Barangay Mabolo","https://gnctenrbzfhrdkfmcxfd.supabase.co/storage/v1/object/sign/HEALTH%20FACILITIES/MABOLO.png?token=eyJraWQiOiJzdG9yYWdlLXVybC1zaWduaW5nLWtleV8xYTNhMGVmMC0xMWJmLTQ5YzYtYTVmNy1mZDY5NTFhZDA2NjAiLCJhbGciOiJIUzI1NiJ9.eyJ1cmwiOiJIRUFMVEggRkFDSUxJVElFUy9NQUJPTE8ucG5nIiwiaWF0IjoxNzcwMDI4OTM3LCJleHAiOjE4MDE1NjQ5Mzd9.ScdTrPg5c6dZvDiSQR88NDT5sLZ9Ev33z8XxhNw8ZfM","Dental Check Up;Blood Bank;Operation Tuli","false","20",,,
"Pacol Barangay Health Station","Health Center","Zone 2 Km 8 Pacol, Naga City","to be filled","to be filled","BHS MW Marilyn Osabal: 09076562472;NDP Lemuel T. Luis, RN: 09070232272;NDP Kristita P. Gonzales, RM: 09178153675;BNS Yolanda G. Salvador: 09614103394;BSPO Jane C. Andes: 09304124962","true","Daily Consultation;Family Planning;Nutrition;Immunization;NTP;Prenatal;Counseling; Home Visitation","Mon-Fri: 8:00 AM - 5:00 PM","Barnagay Pacol","https://gnctenrbzfhrdkfmcxfd.supabase.co/storage/v1/object/sign/HEALTH%20FACILITIES/PACOL.png?token=eyJraWQiOiJzdG9yYWdlLXVybC1zaWduaW5nLWtleV8xYTNhMGVmMC0xMWJmLTQ5YzYtYTVmNy1mZDY5NTFhZDA2NjAiLCJhbGciOiJIUzI1NiJ9.eyJ1cmwiOiJIRUFMVEggRkFDSUxJVElFUy9QQUNPTC5wbmciLCJpYXQiOjE3NzAwMjg5NTUsImV4cCI6MTgwMTU2NDk1NX0.0n8fTbFJeS6WiWg2ppqPqe9U2GrDDo51qvpsyjddi8A","Adolescent Health;HIV Testing;VIA","false","20",,,
"Panicuason Barangay Health Station","Health Center","Zone 4 Panicuason, Naga City","to be filled","to be filled","BHS MW Maria Isabel R. Agsangre: 09853604982","true","Daily Consultation;Family Planning;Prenatal;Immunization;NTP;Home Visitation;4P's","Mon-Fri: 8:00 AM - 5:00 PM","Barangay Panicuason","https://gnctenrbzfhrdkfmcxfd.supabase.co/storage/v1/object/sign/HEALTH%20FACILITIES/PANICUASON.png?token=eyJraWQiOiJzdG9yYWdlLXVybC1zaWduaW5nLWtleV8xYTNhMGVmMC0xMWJmLTQ5YzYtYTVmNy1mZDY5NTFhZDA2NjAiLCJhbGciOiJIUzI1NiJ9.eyJ1cmwiOiJIRUFMVEggRkFDSUxJVElFUy9QQU5JQ1VBU09OLnBuZyIsImlhdCI6MTc3MDAyODk3MCwiZXhwIjoxODAxNTY0OTcwfQ.b4mSORrHz4D9F_7SfoBq8u2CBF4hoJY_DgDMX95RWsM","Adolescent Counseling;4P's","false","20",,,
"Peñafrancia Barangay Health Station","Health Center","Zone 5A Peñafrancia, Naga City","to be filled","to be filled","BHS MW Jennifer V. Bien: 09466982991;K/H Maribel T. Conchina: 09484620384;BHW Pres Analisa P. Alde: 09518735258;BNS Goria E. Muñoz: 09105638006","true","Daily Consultation;Family Planning;NTP Enrollment;YAKAP Profiling;Risk Assessment of Non Communicable Diseases;Prenatal;Immunization;BP and Weight Monitoring;Post-Partum;Home Visitation","Mon-Fri: 8:00 AM - 5:00 PM","Barangay Peñafrancia","https://gnctenrbzfhrdkfmcxfd.supabase.co/storage/v1/object/sign/HEALTH%20FACILITIES/UNKOWN%20LOC.jpg?token=eyJraWQiOiJzdG9yYWdlLXVybC1zaWduaW5nLWtleV8xYTNhMGVmMC0xMWJmLTQ5YzYtYTVmNy1mZDY5NTFhZDA2NjAiLCJhbGciOiJIUzI1NiJ9.eyJ1cmwiOiJIRUFMVEggRkFDSUxJVElFUy9VTktPV04gTE9DLmpwZyIsImlhdCI6MTc3MDAyODk4NSwiZXhwIjoxODAxNTY0OTg1fQ.4JFxOy2-rw2ngvTQZZ8Vo7KdxMWH38pw5Uedi-bLllI","Dental Check Up;Operation Tuli;Blood Donation","false","20",,,
"Sabang Barangay Health Station","Health Center","Zone 1 Zamora St., Sabang, Naga City","to be filled","to be filled","KGD. ON HEALTH Eva V. Relato: 09506606899;BHS MW Louie Bombales: 09319908974;BHW Maria Cecilia M. Bidol: 09206322876;BGY. NUTRITION SCHOLAR Julieta G. San Jose: 09481204960;BGY. SERVICE POINT OFFICER Felvia J. Sibulo: 09630213480","true","Daily Consultation;TB;HIV Testing and Counseling;Immunization;Prenatal;Adolescent Consultation;Family Planning;PSI Insertion and Removal;DMPA;IUD;Pills Distribution;Non Communicable Diseases;HPV Vaccination","Mon-Fri: 8:00 AM - 5:00 PM;Sat-Sun: 9:00 AM - 3:00 PM","Barangay Sabang","https://gnctenrbzfhrdkfmcxfd.supabase.co/storage/v1/object/sign/HEALTH%20FACILITIES/SABANG.png?token=eyJraWQiOiJzdG9yYWdlLXVybC1zaWduaW5nLWtleV8xYTNhMGVmMC0xMWJmLTQ5YzYtYTVmNy1mZDY5NTFhZDA2NjAiLCJhbGciOiJIUzI1NiJ9.eyJ1cmwiOiJIRUFMVEggRkFDSUxJVElFUy9TQUJBTkcucG5nIiwiaWF0IjoxNzcwMDI5MDA0LCJleHAiOjE4MDE1NjUwMDR9.w-nXqe_UJcG8ngOx-QUdOJRS-Ogz-K-WxPfvhzK6ua8","WATSAN;Visitation of BHW;Case Findings;Operation Timbang","false","20",,,
"San Felipe Barangay Health Station","Health Center","Zone 3 San Felipe, Naga City","to be filled","to be filled","BHS MW Elisa R. Belen: 09473113293;BHS MW Gia A. Nasol: 09074211846;DOH HRH Julie Ann S. Notado, RN: 09235933081;DOH HRH Mae-Ann V. Bañadera, RN: 09064849538","true","Family Planning;Risk Assessment;Adolescent Consultation;Immunization;Prenatal","Mon-Fri: 8:00 AM - 5:00 PM","Barangay San Felipe","https://gnctenrbzfhrdkfmcxfd.supabase.co/storage/v1/object/sign/HEALTH%20FACILITIES/SAN%20FELIPE.png?token=eyJraWQiOiJzdG9yYWdlLXVybC1zaWduaW5nLWtleV8xYTNhMGVmMC0xMWJmLTQ5YzYtYTVmNy1mZDY5NTFhZDA2NjAiLCJhbGciOiJIUzI1NiJ9.eyJ1cmwiOiJIRUFMVEggRkFDSUxJVElFUy9TQU4gRkVMSVBFLnBuZyIsImlhdCI6MTc3MDAyOTAxMSwiZXhwIjoxODAxNTY1MDExfQ.U342WlCjTD6jD_b3oalCwkGABylu0L7kMll_QCswnW8","HIV;Syphilis;Hepa-B Screening;Visual Inspection using Acetic Acid;Dental Check Up;Tooth Extraction;Medical Check Up;Blood Donation","false","20",,,
"San Francisco Barangay Health Station","Health Center","Zone 2 San Francisco, Naga City","to be filled","to be filled","BHS MW Marjile M. Mirabel: 09774110272;BNS Rhea Policarpio: 09662388001","true","Daily Consultation;Family Planning;NTP;YAKAP Profiling;Risk Assessment of Non Communicable Diseases;Adolescent Consultation;BP and Weight Monitoring;Immunization;Prenatal;4P's Consultation;VIA for WRA","Mon-Fri: 8:00 AM - 5:00 PM","Barangay San Francisco","https://gnctenrbzfhrdkfmcxfd.supabase.co/storage/v1/object/sign/HEALTH%20FACILITIES/SAN%20FRANCISCO.png?token=eyJraWQiOiJzdG9yYWdlLXVybC1zaWduaW5nLWtleV8xYTNhMGVmMC0xMWJmLTQ5YzYtYTVmNy1mZDY5NTFhZDA2NjAiLCJhbGciOiJIUzI1NiJ9.eyJ1cmwiOiJIRUFMVEggRkFDSUxJVElFUy9TQU4gRlJBTkNJU0NPLnBuZyIsImlhdCI6MTc3MDAyOTAzMSwiZXhwIjoxODAxNTY1MDMxfQ.brGoRVg4UB48xTM_n1MCVNrykx7Ah3XZHCZGWKyiMKc","Dental Check Up;Blood Donation;Operation Tuli","false","20",,,
"San Isidro Barangay Health Station","Health Center","Zone 3 San Isidro, Naga City","to be filled","to be filled","BHS MW Remedios C. Malanyaon: 09109833870;BNS Lanie R. Nacario: 09319995256;BSPO Myra D. Puyot: 09123358610","true","Daily Consultation;Family Planning;Nutrition;Prenatal;Immunization;NTP","Mon-Fri: 8:00 AM - 5:00 PM","Barangay San Isidro","https://gnctenrbzfhrdkfmcxfd.supabase.co/storage/v1/object/sign/HEALTH%20FACILITIES/SAN%20ISIDRO.png?token=eyJraWQiOiJzdG9yYWdlLXVybC1zaWduaW5nLWtleV8xYTNhMGVmMC0xMWJmLTQ5YzYtYTVmNy1mZDY5NTFhZDA2NjAiLCJhbGciOiJIUzI1NiJ9.eyJ1cmwiOiJIRUFMVEggRkFDSUxJVElFUy9TQU4gSVNJRFJPLnBuZyIsImlhdCI6MTc3MDAyOTA0NSwiZXhwIjoxODAxNTY1MDQ1fQ.YO8DFi-hakntTvzW5KlCkbAt2K2rhsmAKWEvYo3MnJM","Adolescent Health;Mental Health Consultation;VIA;Breast Cancer Screening;Medical Check Up;Dental Check Up","false","20",,,
"Sta Cruz Barangay Health Station","Health Center","Poro St., Sta. Cruz, Naga City","to be filled","to be filled","BHS MW Shiela Marie B. Responde: 09093372370;BSPO Ruth Roxas Dialogo: 09157762823;BNS Ma. Elena J. Flores: 09128373455;KGD. ON HEALTH Ma. Carla A. Gomez: 09177214206","true","Daily Consultation;Family Planning;NTP;YAKAP Profiling;Risk Assessment of Non Communicable Diseases;Adolescent Consultation;4P's Beneficiary Weight Monitoring;Progestin Sub Dermal Implant Insertion;Micronutrients Supplementation;Prenatal;Immunization","Mon-Fri: 8:00 AM - 5:00 PM","Barangay Sta. Cruz","https://gnctenrbzfhrdkfmcxfd.supabase.co/storage/v1/object/sign/HEALTH%20FACILITIES/STA%20CRUZ.png?token=eyJraWQiOiJzdG9yYWdlLXVybC1zaWduaW5nLWtleV8xYTNhMGVmMC0xMWJmLTQ5YzYtYTVmNy1mZDY5NTFhZDA2NjAiLCJhbGciOiJIUzI1NiJ9.eyJ1cmwiOiJIRUFMVEggRkFDSUxJVElFUy9TVEEgQ1JVWi5wbmciLCJpYXQiOjE3NzAwMjkwNTksImV4cCI6MTgwMTU2NTA1OX0.jzxhdSp4gE85pZGWu3o-sea1osQ20xXfkSqWNeW5dzM","Progestin Sub Dermal Implant Insertion and Removal;Operation Tuli;Basic Oral Health Care;School-based Immunization and Deworming;Community-based Deworming","false","20",,,
"Tabuco Barangay Health Station","Health Center","Zone 3 Tabuco, Naga City","to be filled","to be filled","P/B Elisa B. Carmona: 09301907714;K/H Susana D. Pabia: 09177075379","true","Daily Consultation;NTP;BP and Weight Monitoring;Immunization Day;Prenatal","Mon-Fri: 8:00 AM - 5:00 PM","Barangay Tabuco","https://gnctenrbzfhrdkfmcxfd.supabase.co/storage/v1/object/sign/HEALTH%20FACILITIES/TABUCO.png?token=eyJraWQiOiJzdG9yYWdlLXVybC1zaWduaW5nLWtleV8xYTNhMGVmMC0xMWJmLTQ5YzYtYTVmNy1mZDY5NTFhZDA2NjAiLCJhbGciOiJIUzI1NiJ9.eyJ1cmwiOiJIRUFMVEggRkFDSUxJVElFUy9UQUJVQ08ucG5nIiwiaWF0IjoxNzcwMDI5MDc2LCJleHAiOjE4MDE1NjUwNzZ9.GAOH1IUEG6gzNpl7tDGH_7njGhuDNJ2PC4PcMSlHrN4","Dental Check Up;Mobile Blood Donation;Operation Tuli","false","20",,,
"Tinago Barangay Health Station","Health Center","Zone 4 San Juan Street, Tinago, Naga City","to be filled","to be filled","BHS MW Sarah Mae B. Osorio: 09195814731;BHW Pres Julie R. Enriquez: 09129136107;KGD. ON HEALTH Ronnie A. Sayson: 09511743319;BSPO Felicia D. Rita: 09456925022","true","Daily Consultation;Family Planning;NTP;YAKAP Profiling;Risk Assessment of Non Communicable Diseases;Adolescent Consultation;BP and Weight Monitoring;Prenatal;Breast Examination;Immunization;Post-partum;Home Visitation;4P's Consultation;VIA for WRA","Mon-Fri: 8:00 AM - 5:00 PM","Barangay Tinago","https://gnctenrbzfhrdkfmcxfd.supabase.co/storage/v1/object/sign/HEALTH%20FACILITIES/TINAGO.png?token=eyJraWQiOiJzdG9yYWdlLXVybC1zaWduaW5nLWtleV8xYTNhMGVmMC0xMWJmLTQ5YzYtYTVmNy1mZDY5NTFhZDA2NjAiLCJhbGciOiJIUzI1NiJ9.eyJ1cmwiOiJIRUFMVEggRkFDSUxJVElFUy9USU5BR08ucG5nIiwiaWF0IjoxNzcwMDI5MDk4LCJleHAiOjE4MDE1NjUwOTh9.loFvmhBYCX8h_iwKvZi-Wf8Vmy3tBVfqrMrqXnq_xdM","Dental Check Up;PSI Insertion","false","20",,,
"Triangulo Barangay Health Station","Health Center","Zone 5 Triangulo, Naga City","to be filled","to be filled","Maricris Muron: 09636398942","true","Non Communicable Disease Examination;Communicable Disease HIV Testing;Immunization;Nutrition Services;Maternal Care;Family Planning Counseling;Adolescent Health Program","Mon-Fri: 8:00 AM - 5:00 PM","Barangay Triangulo","https://gnctenrbzfhrdkfmcxfd.supabase.co/storage/v1/object/sign/HEALTH%20FACILITIES/TRIANGULO.png?token=eyJraWQiOiJzdG9yYWdlLXVybC1zaWduaW5nLWtleV8xYTNhMGVmMC0xMWJmLTQ5YzYtYTVmNy1mZDY5NTFhZDA2NjAiLCJhbGciOiJIUzI1NiJ9.eyJ1cmwiOiJIRUFMVEggRkFDSUxJVElFUy9UUklBTkdVTE8ucG5nIiwiaWF0IjoxNzcwMDI5MTA0LCJleHAiOjE4MDE1NjUxMDR9.30plYRT8y--3Vkqu9CuJHntbGaZhwrCR8ac60Cf2u8s","Oral Health Services","false","20",,,
